{"fetched_at":"2026-03-29T16:36:15Z","count":15609,"tles":[{"name":"STARLINK-3399","line1":"1 51121U 22005T   26087.74770890 -.00000083  00000+0  12844-4 0  9998","line2":"2 51121  53.2169 203.5775 0001240  82.1954 277.9179 15.08835681231758","category":"Starlink"}]}