{
  "norad_id": 51121,
  "name": "STARLINK-3399",
  "history": [
    {
      "epoch": "2026-03-28T17:56:42.048960",
      "apogee_km": 540.6148243295838,
      "perigee_km": 538.8983565719209,
      "latitude_deg": 6.871274185186737,
      "longitude_deg": 83.88005440006964,
      "semi_major_axis_km": 6917.893590450752,
      "eccentricity": 0.00012406,
      "inclination_deg": 53.2169,
      "raan_deg": 203.5775,
      "arg_perigee_deg": 82.1954,
      "mean_anomaly_deg": 277.9179,
      "mean_motion_rev_day": 15.08835681
    }
  ]
}